{
  "links" : {
    "next" : "https://api.nasa.gov/neo/rest/v1/feed?start_date=2003-04-16&end_date=2003-04-16&detailed=true&api_key=t0TVs3DtDT2H8Oy2Zy8m2eVrNsAVKAexjcZXUckd",
    "prev" : "https://api.nasa.gov/neo/rest/v1/feed?start_date=2003-04-14&end_date=2003-04-14&detailed=true&api_key=t0TVs3DtDT2H8Oy2Zy8m2eVrNsAVKAexjcZXUckd",
    "self" : "https://api.nasa.gov/neo/rest/v1/feed?start_date=2003-04-15&end_date=2003-04-15&detailed=true&api_key=t0TVs3DtDT2H8Oy2Zy8m2eVrNsAVKAexjcZXUckd"
  },
  "element_count" : 9,
  "near_earth_objects" : {
    "2003-04-15" : [ {
      "links" : {
        "self" : "https://api.nasa.gov/neo/rest/v1/neo/2467347?api_key=t0TVs3DtDT2H8Oy2Zy8m2eVrNsAVKAexjcZXUckd"
      },
      "neo_reference_id" : "2467347",
      "name" : "467347 (2003 GR)",
      "nasa_jpl_url" : "http://ssd.jpl.nasa.gov/sbdb.cgi?sstr=2467347",
      "absolute_magnitude_h" : 20.6,
      "estimated_diameter" : {
        "kilometers" : {
          "estimated_diameter_min" : 0.2016299194,
          "estimated_diameter_max" : 0.4508582062
        },
        "meters" : {
          "estimated_diameter_min" : 201.6299194428,
          "estimated_diameter_max" : 450.8582061718
        },
        "miles" : {
          "estimated_diameter_min" : 0.1252869847,
          "estimated_diameter_max" : 0.2801502144
        },
        "feet" : {
          "estimated_diameter_min" : 661.5155049046,
          "estimated_diameter_max" : 1479.1936371367
        }
      },
      "is_potentially_hazardous_asteroid" : false,
      "close_approach_data" : [ {
        "close_approach_date" : "2003-04-15",
        "epoch_date_close_approach" : 1050390000000,
        "relative_velocity" : {
          "kilometers_per_second" : "28.0063495086",
          "kilometers_per_hour" : "100822.8582309017",
          "miles_per_hour" : "62647.4032157511"
        },
        "miss_distance" : {
          "astronomical" : "0.2421980266",
          "lunar" : "94.2150268555",
          "kilometers" : "36232308",
          "miles" : "22513712"
        },
        "orbiting_body" : "Earth"
      } ],
      "orbital_data" : {
        "orbit_id" : "32",
        "orbit_determination_date" : "2017-04-06 09:19:26",
        "orbit_uncertainty" : "0",
        "minimum_orbit_intersection" : ".209354",
        "jupiter_tisserand_invariant" : "4.307",
        "epoch_osculation" : "2458000.5",
        "eccentricity" : ".3177444461929936",
        "semi_major_axis" : "1.384710656640559",
        "inclination" : "55.83310949087334",
        "ascending_node_longitude" : "21.13880702737665",
        "orbital_period" : "595.1644449946381",
        "perihelion_distance" : ".9447265359087681",
        "perihelion_argument" : "273.0471416072223",
        "aphelion_distance" : "1.82469477737235",
        "perihelion_time" : "2458187.047025217805",
        "mean_anomaly" : "247.1623974798852",
        "mean_motion" : ".604874842621426",
        "equinox" : "J2000"
      }
    }, {
      "links" : {
        "self" : "https://api.nasa.gov/neo/rest/v1/neo/3753024?api_key=t0TVs3DtDT2H8Oy2Zy8m2eVrNsAVKAexjcZXUckd"
      },
      "neo_reference_id" : "3753024",
      "name" : "(2016 JJ17)",
      "nasa_jpl_url" : "http://ssd.jpl.nasa.gov/sbdb.cgi?sstr=3753024",
      "absolute_magnitude_h" : 22.9,
      "estimated_diameter" : {
        "kilometers" : {
          "estimated_diameter_min" : 0.0699125232,
          "estimated_diameter_max" : 0.1563291544
        },
        "meters" : {
          "estimated_diameter_min" : 69.9125232246,
          "estimated_diameter_max" : 156.3291544087
        },
        "miles" : {
          "estimated_diameter_min" : 0.0434416145,
          "estimated_diameter_max" : 0.097138403
        },
        "feet" : {
          "estimated_diameter_min" : 229.3718026961,
          "estimated_diameter_max" : 512.8909429502
        }
      },
      "is_potentially_hazardous_asteroid" : false,
      "close_approach_data" : [ {
        "close_approach_date" : "2003-04-15",
        "epoch_date_close_approach" : 1050390000000,
        "relative_velocity" : {
          "kilometers_per_second" : "5.9469912737",
          "kilometers_per_hour" : "21409.1685854153",
          "miles_per_hour" : "13302.8247801987"
        },
        "miss_distance" : {
          "astronomical" : "0.1485317983",
          "lunar" : "57.7788696289",
          "kilometers" : "22220040",
          "miles" : "13806893"
        },
        "orbiting_body" : "Earth"
      } ],
      "orbital_data" : {
        "orbit_id" : "13",
        "orbit_determination_date" : "2017-07-02 06:21:33",
        "orbit_uncertainty" : "3",
        "minimum_orbit_intersection" : ".0351164",
        "jupiter_tisserand_invariant" : "6.274",
        "epoch_osculation" : "2458000.5",
        "eccentricity" : ".3192914407126398",
        "semi_major_axis" : ".9516589361468737",
        "inclination" : "5.606767848781831",
        "ascending_node_longitude" : "125.3555950506545",
        "orbital_period" : "339.0942471535946",
        "perihelion_distance" : ".6478023833574803",
        "perihelion_argument" : "320.6923532502159",
        "aphelion_distance" : "1.255515488936267",
        "perihelion_time" : "2458087.008659098419",
        "mean_anomaly" : "268.15793090903",
        "mean_motion" : "1.061651747329515",
        "equinox" : "J2000"
      }
    }, {
      "links" : {
        "self" : "https://api.nasa.gov/neo/rest/v1/neo/3672907?api_key=t0TVs3DtDT2H8Oy2Zy8m2eVrNsAVKAexjcZXUckd"
      },
      "neo_reference_id" : "3672907",
      "name" : "(2014 KV76)",
      "nasa_jpl_url" : "http://ssd.jpl.nasa.gov/sbdb.cgi?sstr=3672907",
      "absolute_magnitude_h" : 21.0,
      "estimated_diameter" : {
        "kilometers" : {
          "estimated_diameter_min" : 0.1677084622,
          "estimated_diameter_max" : 0.3750075218
        },
        "meters" : {
          "estimated_diameter_min" : 167.7084621628,
          "estimated_diameter_max" : 375.0075217981
        },
        "miles" : {
          "estimated_diameter_min" : 0.1042091748,
          "estimated_diameter_max" : 0.2330187988
        },
        "feet" : {
          "estimated_diameter_min" : 550.2246310023,
          "estimated_diameter_max" : 1230.3396778159
        }
      },
      "is_potentially_hazardous_asteroid" : false,
      "close_approach_data" : [ {
        "close_approach_date" : "2003-04-15",
        "epoch_date_close_approach" : 1050390000000,
        "relative_velocity" : {
          "kilometers_per_second" : "9.0779823319",
          "kilometers_per_hour" : "32680.7363947938",
          "miles_per_hour" : "20306.5386781984"
        },
        "miss_distance" : {
          "astronomical" : "0.188052972",
          "lunar" : "73.1526031494",
          "kilometers" : "28132324",
          "miles" : "17480616"
        },
        "orbiting_body" : "Earth"
      } ],
      "orbital_data" : {
        "orbit_id" : "12",
        "orbit_determination_date" : "2017-04-06 08:40:17",
        "orbit_uncertainty" : "3",
        "minimum_orbit_intersection" : ".0607186",
        "jupiter_tisserand_invariant" : "6.869",
        "epoch_osculation" : "2458000.5",
        "eccentricity" : ".3582811924420946",
        "semi_major_axis" : ".8482991564735446",
        "inclination" : "12.75020072424815",
        "ascending_node_longitude" : "232.8171874235522",
        "orbital_period" : "285.3789788338696",
        "perihelion_distance" : ".5443695231445801",
        "perihelion_argument" : "157.7599795945442",
        "aphelion_distance" : "1.152228789802509",
        "perihelion_time" : "2458036.743875890416",
        "mean_anomaly" : "314.279059467287",
        "mean_motion" : "1.261480440749528",
        "equinox" : "J2000"
      }
    } ]
  }
}